{
  "type": "FeatureCollection",
  "features": [
    {
      "type": "Feature",
      "properties": {
        "norad_id": 43719,
        "name": "HYSIS",
        "group": "resource",
        "lat": 18.559569092128264,
        "lon": 46.51128205403097,
        "alt_km": 633.1482548833555,
        "timestamp": "2025-12-12T05:47:28.429674+00:00",
        "meta_object_name": "HYSIS",
        "meta_object_id": "2018-096A",
        "meta_epoch": "2025-12-11T23:12:37.161792",
        "meta_mean_motion": 14.78641199,
        "meta_eccentricity": 0.00014295,
        "meta_inclination": 98.0094,
        "meta_ra_of_asc_node": 48.9481,
        "meta_arg_of_pericenter": 58.4029,
        "meta_mean_anomaly": 301.7321,
        "meta_ephemeris_type": 0,
        "meta_classification_type": "U",
        "meta_norad_cat_id": 43719,
        "meta_element_set_no": 999,
        "meta_rev_at_epoch": 37975,
        "meta_bstar": 0.00024170733,
        "meta_mean_motion_dot": 1.718e-05,
        "meta_mean_motion_ddot": 0,
        "tle_line1": "1 43719U 18096A   25345.96709678  .00001718  00000+0  24171-3 0  9993",
        "tle_line2": "2 43719  98.0094  48.9481 0001429  58.4029 301.7321 14.78641199379752"
      },
      "geometry": {
        "type": "Point",
        "coordinates": [
          46.51128205403097,
          18.559569092128264
        ]
      }
    },
    {
      "type": "Feature",
      "properties": {
        "norad_id": 43783,
        "name": "KAZSTSAT",
        "group": "resource",
        "lat": -37.6400688374015,
        "lon": -164.34874867619928,
        "alt_km": 577.0683907949506,
        "timestamp": "2025-12-12T05:47:28.429684+00:00",
        "meta_object_name": "KAZSTSAT",
        "meta_object_id": "2018-099AB",
        "meta_epoch": "2025-12-12T00:01:00.235488",
        "meta_mean_motion": 14.9934977,
        "meta_eccentricity": 0.00059313,
        "meta_inclination": 97.4559,
        "meta_ra_of_asc_node": 21.2176,
        "meta_arg_of_pericenter": 333.3797,
        "meta_mean_anomaly": 26.7121,
        "meta_ephemeris_type": 0,
        "meta_classification_type": "U",
        "meta_norad_cat_id": 43783,
        "meta_element_set_no": 999,
        "meta_rev_at_epoch": 38325,
        "meta_bstar": 0.00019003915,
        "meta_mean_motion_dot": 2.268e-05,
        "meta_mean_motion_ddot": 0,
        "tle_line1": "1 43783U 18099AB  25346.00069717  .00002268  00000+0  19004-3 0  9996",
        "tle_line2": "2 43783  97.4559  21.2176 0005931 333.3797  26.7121 14.99349770383251"
      },
      "geometry": {
        "type": "Point",
        "coordinates": [
          -164.34874867619928,
          -37.6400688374015
        ]
      }
    },
    {
      "type": "Feature",
      "properties": {
        "norad_id": 43831,
        "name": "SAUDISAT 5A",
        "group": "resource",
        "lat": -43.29196332536533,
        "lon": -140.52877810514082,
        "alt_km": 502.2543737073038,
        "timestamp": "2025-12-12T05:47:28.429695+00:00",
        "meta_object_name": "SAUDISAT 5A",
        "meta_object_id": "2018-102A",
        "meta_epoch": "2025-12-12T00:05:32.761824",
        "meta_mean_motion": 15.2564215,
        "meta_eccentricity": 0.00117665,
        "meta_inclination": 97.3353,
        "meta_ra_of_asc_node": 46.2089,
        "meta_arg_of_pericenter": 78.6463,
        "meta_mean_anomaly": 281.6097,
        "meta_ephemeris_type": 0,
        "meta_classification_type": "U",
        "meta_norad_cat_id": 43831,
        "meta_element_set_no": 999,
        "meta_rev_at_epoch": 38711,
        "meta_bstar": 0.00037857041,
        "meta_mean_motion_dot": 9.581e-05,
        "meta_mean_motion_ddot": 0,
        "tle_line1": "1 43831U 18102A   25346.00385141  .00009581  00000+0  37857-3 0  9998",
        "tle_line2": "2 43831  97.3353  46.2089 0011766  78.6463 281.6097 15.25642150387119"
      },
      "geometry": {
        "type": "Point",
        "coordinates": [
          -140.52877810514082,
          -43.29196332536533
        ]
      }
    },
    {
      "type": "Feature",
      "properties": {
        "norad_id": 43833,
        "name": "SAUDISAT 5B",
        "group": "resource",
        "lat": -81.04637996506808,
        "lon": 104.13304269214056,
        "alt_km": 503.4130708537996,
        "timestamp": "2025-12-12T05:47:28.429706+00:00",
        "meta_object_name": "SAUDISAT 5B",
        "meta_object_id": "2018-102C",
        "meta_epoch": "2025-12-11T23:52:05.460096",
        "meta_mean_motion": 15.25995528,
        "meta_eccentricity": 0.00124677,
        "meta_inclination": 97.3448,
        "meta_ra_of_asc_node": 48.9369,
        "meta_arg_of_pericenter": 80.8906,
        "meta_mean_anomaly": 279.3743,
        "meta_ephemeris_type": 0,
        "meta_classification_type": "U",
        "meta_norad_cat_id": 43833,
        "meta_element_set_no": 999,
        "meta_rev_at_epoch": 38722,
        "meta_bstar": 0.00047288588,
        "meta_mean_motion_dot": 0.0001212,
        "meta_mean_motion_ddot": 0,
        "tle_line1": "1 43833U 18102C   25345.99450764  .00012120  00000+0  47289-3 0  9994",
        "tle_line2": "2 43833  97.3448  48.9369 0012467  80.8906 279.3743 15.25995528387226"
      },
      "geometry": {
        "type": "Point",
        "coordinates": [
          104.13304269214056,
          -81.04637996506808
        ]
      }
    },
    {
      "type": "Feature",
      "properties": {
        "norad_id": 44622,
        "name": "GAOFEN-10R",
        "group": "resource",
        "lat": -63.17534634955634,
        "lon": -50.04894488783865,
        "alt_km": 629.412830491704,
        "timestamp": "2025-12-12T05:47:28.429717+00:00",
        "meta_object_name": "GAOFEN-10R",
        "meta_object_id": "2019-066A",
        "meta_epoch": "2025-12-12T01:13:19.584768",
        "meta_mean_motion": 14.82788951,
        "meta_eccentricity": 0.00079317,
        "meta_inclination": 98.0275,
        "meta_ra_of_asc_node": 293.5545,
        "meta_arg_of_pericenter": 44.0423,
        "meta_mean_anomaly": 316.1421,
        "meta_ephemeris_type": 0,
        "meta_classification_type": "U",
        "meta_norad_cat_id": 44622,
        "meta_element_set_no": 999,
        "meta_rev_at_epoch": 33464,
        "meta_bstar": 0.00035205853,
        "meta_mean_motion_dot": 2.794e-05,
        "meta_mean_motion_ddot": 0,
        "tle_line1": "1 44622U 19066A   25346.05092112  .00002794  00000+0  35206-3 0  9990",
        "tle_line2": "2 44622  98.0275 293.5545 0007931  44.0423 316.1421 14.82788951334642"
      },
      "geometry": {
        "type": "Point",
        "coordinates": [
          -50.04894488783865,
          -63.17534634955634
        ]
      }
    },
    {
      "type": "Feature",
      "properties": {
        "norad_id": 44804,
        "name": "CARTOSAT-3",
        "group": "resource",
        "lat": 33.94431328793985,
        "lon": 40.77259320833565,
        "alt_km": 500.0058615131684,
        "timestamp": "2025-12-12T05:47:28.429727+00:00",
        "meta_object_name": "CARTOSAT-3",
        "meta_object_id": "2019-081A",
        "meta_epoch": "2025-12-11T18:34:36.084864",
        "meta_mean_motion": 15.19360977,
        "meta_eccentricity": 0.00139751,
        "meta_inclination": 97.4581,
        "meta_ra_of_asc_node": 45.3698,
        "meta_arg_of_pericenter": 90.0575,
        "meta_mean_anomaly": 270.2261,
        "meta_ephemeris_type": 0,
        "meta_classification_type": "U",
        "meta_norad_cat_id": 44804,
        "meta_element_set_no": 999,
        "meta_rev_at_epoch": 33501,
        "meta_bstar": 0.00036661304,
        "meta_mean_motion_dot": 7.705e-05,
        "meta_mean_motion_ddot": 0,
        "tle_line1": "1 44804U 19081A   25345.77402876  .00007705  00000+0  36661-3 0  9992",
        "tle_line2": "2 44804  97.4581  45.3698 0013975  90.0575 270.2261 15.19360977335012"
      },
      "geometry": {
        "type": "Point",
        "coordinates": [
          40.77259320833565,
          33.94431328793985
        ]
      }
    },
    {
      "type": "Feature",
      "properties": {
        "norad_id": 44819,
        "name": "GAOFEN-12 01",
        "group": "resource",
        "lat": -26.522177506851666,
        "lon": 168.60632525183806,
        "alt_km": 632.2217174944562,
        "timestamp": "2025-12-12T05:47:28.429737+00:00",
        "meta_object_name": "GAOFEN-12 01",
        "meta_object_id": "2019-082A",
        "meta_epoch": "2025-12-11T23:59:41.534592",
        "meta_mean_motion": 14.80656054,
        "meta_eccentricity": 0.00012843,
        "meta_inclination": 97.8126,
        "meta_ra_of_asc_node": 352.3002,
        "meta_arg_of_pericenter": 238.396,
        "meta_mean_anomaly": 121.7127,
        "meta_ephemeris_type": 0,
        "meta_classification_type": "U",
        "meta_norad_cat_id": 44819,
        "meta_element_set_no": 999,
        "meta_rev_at_epoch": 32639,
        "meta_bstar": 0.00011407752,
        "meta_mean_motion_dot": 8.26e-06,
        "meta_mean_motion_ddot": 0,
        "tle_line1": "1 44819U 19082A   25345.99978628  .00000826  00000+0  11408-3 0  9995",
        "tle_line2": "2 44819  97.8126 352.3002 0001284 238.3960 121.7127 14.80656054326395"
      },
      "geometry": {
        "type": "Point",
        "coordinates": [
          168.60632525183806,
          -26.522177506851666
        ]
      }
    }
  ]
}